HAWK-2B                 
1 47508U 21006CZ  26068.67629241  .00009474  00000+0  29651-3 0  9991
2 47508  97.2334 114.1140 0007102 185.9063 174.2098 15.33301353284246
STARLINK-30804          
1 58155U 23166F   26068.73864388 -.00002446  00000+0 -70546-4 0  9994
2 58155  53.1611 219.6057 0001155  81.1570 278.9562 15.30175871133180
